TIANQI-15               
1 49027U 21065B   26068.81163741  .00006722  00000+0  41179-3 0  9990
2 49027  34.9979 108.2420 0007067 250.7766 109.2180 15.09508085254244
STARLINK-3768           
1 52301U 22041AS  26068.41108631 -.00000529  00000+0 -15165-4 0  9995
2 52301  53.2172 100.3703 0001220  96.9892 263.1239 15.08840631214464
